[{"OBJECT_NAME":"YAOGAN-35 04B","OBJECT_ID":"2022-100C","EPOCH":"2026-03-09T23:42:44.729280","MEAN_MOTION":15.33187585,"ECCENTRICITY":0.00030912,"INCLINATION":35.0014,"RA_OF_ASC_NODE":302.0652,"ARG_OF_PERICENTER":78.7259,"MEAN_ANOMALY":281.3806,"EPHEMERIS_TYPE":0,"CLASSIFICATION_TYPE":"U","NORAD_CAT_ID":53524,"ELEMENT_SET_NO":999,"REV_AT_EPOCH":8998,"BSTAR":0.00054878217,"MEAN_MOTION_DOT":0.00018069,"MEAN_MOTION_DDOT":0},{"OBJECT_NAME":"OBJECT N","OBJECT_ID":"2025-155N","EPOCH":"2026-03-09T22:27:42.648192","MEAN_MOTION":15.35502024,"ECCENTRICITY":0.00088608,"INCLINATION":97.4405,"RA_OF_ASC_NODE":38.3729,"ARG_OF_PERICENTER":136.1354,"MEAN_ANOMALY":224.0595,"EPHEMERIS_TYPE":0,"CLASSIFICATION_TYPE":"U","NORAD_CAT_ID":64888,"ELEMENT_SET_NO":999,"REV_AT_EPOCH":6567,"BSTAR":0.00095623277,"MEAN_MOTION_DOT":0.00033051,"MEAN_MOTION_DDOT":0}]
